{"type": "FeatureCollection", "features": [ {"type": "Feature", "properties": {"norad_id": 42987, "name": "SKYSAT-C11", "group": "resource", "lat": -48.337707652095446, "lon": 144.44109826022085, "alt_km": 430.32378968466674, "timestamp": "2025-12-24T05:51:19.263187+00:00", "meta": {"OBJECT_NAME": "SKYSAT-C11", "OBJECT_ID": "2017-068A", "EPOCH": "2025-12-23T22:18:31.700448", "MEAN_MOTION": 15.47915438, "ECCENTRICITY": 0.00011353, "INCLINATION": 97.4153, "RA_OF_ASC_NODE": 135.7018, "ARG_OF_PERICENTER": 96.7135, "MEAN_ANOMALY": 263.4245, "EPHEMERIS_TYPE": 0, "CLASSIFICATION_TYPE": "U", "NORAD_CAT_ID": 42987, "ELEMENT_SET_NO": 999, "REV_AT_EPOCH": 45604, "BSTAR": 0.00046863844, "MEAN_MOTION_DOT": 0.00024367, "MEAN_MOTION_DDOT": 0}, "tle": {"line1": "1 42987U 17068A   25357.92953357  .00024367  00000+0  46864-3 0  9999", "line2": "2 42987  97.4153 135.7018 0001135  96.7135 263.4245 15.47915438456049"}}, "geometry": {"type": "Point", "coordinates": [144.44109826022085, -48.337707652095446]}}, {"type": "Feature", "properties": {"norad_id": 42988, "name": "SKYSAT-C10", "group": "resource", "lat": 68.06244723183286, "lon": -31.972754458689572, "alt_km": 459.53390299760395, "timestamp": "2025-12-24T05:51:19.263197+00:00", "meta": {"OBJECT_NAME": "SKYSAT-C10", "OBJECT_ID": "2017-068B", "EPOCH": "2025-12-23T21:32:17.126880", "MEAN_MOTION": 15.32289982, "ECCENTRICITY": 0.00053127, "INCLINATION": 97.4271, "RA_OF_ASC_NODE": 128.7812, "ARG_OF_PERICENTER": 72.934, "MEAN_ANOMALY": 287.2483, "EPHEMERIS_TYPE": 0, "CLASSIFICATION_TYPE": "U", "NORAD_CAT_ID": 42988, "ELEMENT_SET_NO": 999, "REV_AT_EPOCH": 45550, "BSTAR": 0.00034377349, "MEAN_MOTION_DOT": 0.00010647, "MEAN_MOTION_DDOT": 0}, "tle": {"line1": "1 42988U 17068B   25357.89742045  .00010647  00000+0  34377-3 0  9998", "line2": "2 42988  97.4271 128.7812 0005312  72.9340 287.2483 15.32289982455500"}}, "geometry": {"type": "Point", "coordinates": [-31.972754458689572, 68.06244723183286]}}, {"type": "Feature", "properties": {"norad_id": 42989, "name": "SKYSAT-C9", "group": "resource", "lat": 55.11796366142593, "lon": -40.63548049389284, "alt_km": 449.76545965079004, "timestamp": "2025-12-24T05:51:19.263207+00:00", "meta": {"OBJECT_NAME": "SKYSAT-C9", "OBJECT_ID": "2017-068C", "EPOCH": "2025-12-23T21:30:06.973056", "MEAN_MOTION": 15.36320631, "ECCENTRICITY": 0.00103114, "INCLINATION": 97.4198, "RA_OF_ASC_NODE": 128.2396, "ARG_OF_PERICENTER": 51.962, "MEAN_ANOMALY": 308.2553, "EPHEMERIS_TYPE": 0, "CLASSIFICATION_TYPE": "U", "NORAD_CAT_ID": 42989, "ELEMENT_SET_NO": 999, "REV_AT_EPOCH": 45579, "BSTAR": 0.00035834833, "MEAN_MOTION_DOT": 0.00012636, "MEAN_MOTION_DDOT": 0}, "tle": {"line1": "1 42989U 17068C   25357.89591404  .00012636  00000+0  35835-3 0  9990", "line2": "2 42989  97.4198 128.2396 0010311  51.9620 308.2553 15.36320631455798"}}, "geometry": {"type": "Point", "coordinates": [-40.63548049389284, 55.11796366142593]}}, {"type": "Feature", "properties": {"norad_id": 42990, "name": "SKYSAT-C8", "group": "resource", "lat": -35.10484002248156, "lon": 133.55886937939027, "alt_km": 472.2708231172646, "timestamp": "2025-12-24T05:51:19.263218+00:00", "meta": {"OBJECT_NAME": "SKYSAT-C8", "OBJECT_ID": "2017-068D", "EPOCH": "2025-12-23T20:36:40.355424", "MEAN_MOTION": 15.33155783, "ECCENTRICITY": 9.707e-05, "INCLINATION": 97.4289, "RA_OF_ASC_NODE": 127.9093, "ARG_OF_PERICENTER": 279.2421, "MEAN_ANOMALY": 80.8711, "EPHEMERIS_TYPE": 0, "CLASSIFICATION_TYPE": "U", "NORAD_CAT_ID": 42990, "ELEMENT_SET_NO": 999, "REV_AT_EPOCH": 45541, "BSTAR": 0.00036031492, "MEAN_MOTION_DOT": 0.00011468, "MEAN_MOTION_DDOT": 0}, "tle": {"line1": "1 42990U 17068D   25357.85880041  .00011468  00000+0  36031-3 0  9997", "line2": "2 42990  97.4289 127.9093 0000970 279.2421  80.8711 15.33155783455414"}}, "geometry": {"type": "Point", "coordinates": [133.55886937939027, -35.10484002248156]}}, {"type": "Feature", "properties": {"norad_id": 42991, "name": "SKYSAT-C7", "group": "resource", "lat": 24.3152145562532, "lon": -47.29206520322887, "alt_km": 471.0101398003844, "timestamp": "2025-12-24T05:51:19.263228+00:00", "meta": {"OBJECT_NAME": "SKYSAT-C7", "OBJECT_ID": "2017-068E", "EPOCH": "2025-12-23T07:14:29.889312", "MEAN_MOTION": 15.3253985, "ECCENTRICITY": 0.00069531, "INCLINATION": 97.4294, "RA_OF_ASC_NODE": 128.382, "ARG_OF_PERICENTER": 23.9073, "MEAN_ANOMALY": 336.249, "EPHEMERIS_TYPE": 0, "CLASSIFICATION_TYPE": "U", "NORAD_CAT_ID": 42991, "ELEMENT_SET_NO": 999, "REV_AT_EPOCH": 45539, "BSTAR": 0.00037351133, "MEAN_MOTION_DOT": 0.00011671, "MEAN_MOTION_DDOT": 0}, "tle": {"line1": "1 42991U 17068E   25357.30173483  .00011671  00000+0  37351-3 0  9995", "line2": "2 42991  97.4294 128.3820 0006953  23.9073 336.2490 15.32539850455397"}}, "geometry": {"type": "Point", "coordinates": [-47.29206520322887, 24.3152145562532]}}, {"type": "Feature", "properties": {"norad_id": 42992, "name": "SKYSAT-C6", "group": "resource", "lat": -56.77661201477677, "lon": -61.74052782837544, "alt_km": 481.09704500727366, "timestamp": "2025-12-24T05:51:19.263238+00:00", "meta": {"OBJECT_NAME": "SKYSAT-C6", "OBJECT_ID": "2017-068F", "EPOCH": "2025-12-23T22:33:01.268064", "MEAN_MOTION": 15.31710271, "ECCENTRICITY": 0.00048283, "INCLINATION": 97.4329, "RA_OF_ASC_NODE": 129.4519, "ARG_OF_PERICENTER": 52.1557, "MEAN_ANOMALY": 308.0121, "EPHEMERIS_TYPE": 0, "CLASSIFICATION_TYPE": "U", "NORAD_CAT_ID": 42992, "ELEMENT_SET_NO": 999, "REV_AT_EPOCH": 45547, "BSTAR": 0.00035191671, "MEAN_MOTION_DOT": 0.00010704, "MEAN_MOTION_DDOT": 0}, "tle": {"line1": "1 42992U 17068F   25357.93959801  .00010704  00000+0  35192-3 0  9998", "line2": "2 42992  97.4329 129.4519 0004828  52.1557 308.0121 15.31710271455478"}}, "geometry": {"type": "Point", "coordinates": [-61.74052782837544, -56.77661201477677]}}, {"type": "Feature", "properties": {"norad_id": 43111, "name": "CARTOSAT-2F", "group": "resource", "lat": -13.198259392642566, "lon": -126.0594619119099, "alt_km": 512.6899029605229, "timestamp": "2025-12-24T05:51:19.263248+00:00", "meta": {"OBJECT_NAME": "CARTOSAT-2F", "OBJECT_ID": "2018-004A", "EPOCH": "2025-12-23T22:41:05.030304", "MEAN_MOTION": 15.19227649, "ECCENTRICITY": 0.00016281, "INCLINATION": 97.4303, "RA_OF_ASC_NODE": 55.4005, "ARG_OF_PERICENTER": 109.6359, "MEAN_ANOMALY": 250.5052, "EPHEMERIS_TYPE": 0, "CLASSIFICATION_TYPE": "U", "NORAD_CAT_ID": 43111, "ELEMENT_SET_NO": 999, "REV_AT_EPOCH": 44072, "BSTAR": 0.00021791088, "MEAN_MOTION_DOT": 4.522e-05, "MEAN_MOTION_DDOT": 0}, "tle": {"line1": "1 43111U 18004A   25357.94519711  .00004522  00000+0  21791-3 0  9997", "line2": "2 43111  97.4303  55.4005 0001628 109.6359 250.5052 15.19227649440729"}}, "geometry": {"type": "Point", "coordinates": [-126.0594619119099, -13.198259392642566]}}, {"type": "Feature", "properties": {"norad_id": 43259, "name": "GAOFEN-1 02", "group": "resource", "lat": -10.894331564011473, "lon": 57.60321930921155, "alt_km": 646.6784164850806, "timestamp": "2025-12-24T05:51:19.263258+00:00", "meta": {"OBJECT_NAME": "GAOFEN-1 02", "OBJECT_ID": "2018-031A", "EPOCH": "2025-12-23T23:23:56.467104", "MEAN_MOTION": 14.76435356, "ECCENTRICITY": 0.00025277, "INCLINATION": 98.079, "RA_OF_ASC_NODE": 55.7676, "ARG_OF_PERICENTER": 175.003, "MEAN_ANOMALY": 185.1206, "EPHEMERIS_TYPE": 0, "CLASSIFICATION_TYPE": "U", "NORAD_CAT_ID": 43259, "ELEMENT_SET_NO": 999, "REV_AT_EPOCH": 41684, "BSTAR": 7.4871096e-05, "MEAN_MOTION_DOT": 4.69e-06, "MEAN_MOTION_DDOT": 0}, "tle": {"line1": "1 43259U 18031A   25357.97495911  .00000469  00000+0  74871-4 0  9992", "line2": "2 43259  98.0790  55.7676 0002527 175.0030 185.1206 14.76435356416846"}}, "geometry": {"type": "Point", "coordinates": [57.60321930921155, -10.894331564011473]}}, {"type": "Feature", "properties": {"norad_id": 43260, "name": "GAOFEN-1 03", "group": "resource", "lat": 72.82139560434365, "lon": -96.73696304036247, "alt_km": 634.6204284726464, "timestamp": "2025-12-24T05:51:19.263268+00:00", "meta": {"OBJECT_NAME": "GAOFEN-1 03", "OBJECT_ID": "2018-031B", "EPOCH": "2025-12-23T22:52:28.532064", "MEAN_MOTION": 14.76458869, "ECCENTRICITY": 0.00017105, "INCLINATION": 98.0783, "RA_OF_ASC_NODE": 55.6217, "ARG_OF_PERICENTER": 261.7883, "MEAN_ANOMALY": 98.3132, "EPHEMERIS_TYPE": 0, "CLASSIFICATION_TYPE": "U", "NORAD_CAT_ID": 43260, "ELEMENT_SET_NO": 999, "REV_AT_EPOCH": 41683, "BSTAR": 0.00013674089, "MEAN_MOTION_DOT": 9e-06, "MEAN_MOTION_DDOT": 0}, "tle": {"line1": "1 43260U 18031B   25357.95310801  .00000900  00000+0  13674-3 0  9999", "line2": "2 43260  98.0783  55.6217 0001710 261.7883  98.3132 14.76458869416838"}}, "geometry": {"type": "Point", "coordinates": [-96.73696304036247, 72.82139560434365]}}, {"type": "Feature", "properties": {"norad_id": 43262, "name": "GAOFEN-1 04", "group": "resource", "lat": -53.56736513175259, "lon": -135.01188632475686, "alt_km": 648.0156448298567, "timestamp": "2025-12-24T05:51:19.263278+00:00", "meta": {"OBJECT_NAME": "GAOFEN-1 04", "OBJECT_ID": "2018-031D", "EPOCH": "2025-12-23T22:17:28.750272", "MEAN_MOTION": 14.76427755, "ECCENTRICITY": 5.584e-05, "INCLINATION": 98.0791, "RA_OF_ASC_NODE": 55.7678, "ARG_OF_PERICENTER": 60.7493, "MEAN_ANOMALY": 299.3772, "EPHEMERIS_TYPE": 0, "CLASSIFICATION_TYPE": "U", "NORAD_CAT_ID": 43262, "ELEMENT_SET_NO": 999, "REV_AT_EPOCH": 41682, "BSTAR": 0.00016258332, "MEAN_MOTION_DOT": 1.079e-05, "MEAN_MOTION_DDOT": 0}, "tle": {"line1": "1 43262U 18031D   25357.92880498  .00001079  00000+0  16258-3 0  9991", "line2": "2 43262  98.0791  55.7678 0000558  60.7493 299.3772 14.76427755416826"}}, "geometry": {"type": "Point", "coordinates": [-135.01188632475686, -53.56736513175259]}}]}